GLOBALSTAR M057         
1 25943U 99058A   24300.71790494 -.00000100  00000+0 -69026-4 0  9993
2 25943  51.9990 290.7766 0002122 264.2698  95.7909 12.24801870138328
GLOBALSTAR M059         
1 25944U 99058B   24300.96495856 -.00000050  00000+0  45294-3 0  9998
2 25944  51.9989 118.1075 0001042 107.0774  52.7782 11.99967796546047
GLOBALSTAR M056         
1 25945U 99058C   24300.98411230 -.00000103  00000+0 -17550-3 0  9999
2 25945  51.9934 126.0012 0002017  84.7244  82.5186 12.04777602134519
GLOBALSTAR M031         
1 25946U 99058D   24300.74940611  .00000009  00000+0  10150-2 0  9995
2 25946  51.9990  32.9475 0001835  79.5155  85.6846 12.16020908136141
GLOBALSTAR M039         
1 25961U 99062A   24300.89853149 -.00000031  00000+0  40644-3 0  9990
2 25961  51.9842 259.2581 0002322 182.8327 177.2527 12.62308424150757
GLOBALSTAR M034         
1 25962U 99062B   24300.97210181 -.00000053  00000+0  44400-3 0  9991
2 25962  51.9868 257.6079 0014156 323.4041  80.2465 11.79434970110870
GLOBALSTAR M029         
1 25963U 99062C   24300.70608532 -.00000058  00000+0  34980-3 0  9991
2 25963  51.9838   7.0463 0002508  28.0091 121.8302 11.99885226141099
GLOBALSTAR M061         
1 25964U 99062D   24300.72532883 -.00000077  00000+0  51322-4 0  9990
2 25964  51.9791  79.1832 0005355 239.9259 263.2773 11.76767429 93694
